{
"type": "FeatureCollection",
"name": "parks",
"crs": { "type": "name", "properties": { "name": "urn:ogc:def:crs:OGC:1.3:CRS84" } },
"features": [
{ "type": "Feature", "properties": { "osm_id": "way/90843336", "leisure": "park", "name": null, "access": null, "operator": null }, "geometry": { "type": "Polygon", "coordinates": [ [ [ 77.6532223, 12.9188963 ], [ 77.6532388, 12.9181244 ], [ 77.6539268, 12.9181534 ], [ 77.65401, 12.918913 ], [ 77.6532223, 12.9188963 ] ] ] } },
{ "type": "Feature", "properties": { "osm_id": "way/90843342", "leisure": "park", "name": "Nethravathi Park", "access": null, "operator": null }, "geometry": { "type": "Polygon", "coordinates": [ [ [ 77.6526038, 12.9173829 ], [ 77.6526113, 12.9167299 ], [ 77.6535859, 12.9167815 ], [ 77.6536955, 12.9173942 ], [ 77.6526038, 12.9173829 ] ] ] } },
{ "type": "Feature", "properties": { "osm_id": "way/90843344", "leisure": "park", "name": "Kaveri Park", "access": null, "operator": null }, "geometry": { "type": "Polygon", "coordinates": [ [ [ 77.6490467, 12.9125367 ], [ 77.6490461, 12.9127618 ], [ 77.6490479, 12.9131525 ], [ 77.6505219, 12.9131462 ], [ 77.6505192, 12.9125497 ], [ 77.6504369, 12.91255 ], [ 77.6493936, 12.9125544 ], [ 77.6490467, 12.9125367 ] ] ] } },
{ "type": "Feature", "properties": { "osm_id": "way/128220279", "leisure": "park", "name": null, "access": null, "operator": null }, "geometry": { "type": "Polygon", "coordinates": [ [ [ 77.6298486, 12.9146014 ], [ 77.6305579, 12.914543 ], [ 77.6305351, 12.9151793 ], [ 77.629917, 12.9152416 ], [ 77.6298486, 12.9146014 ] ] ] } },
{ "type": "Feature", "properties": { "osm_id": "way/233127585", "leisure": "park", "name": null, "access": null, "operator": null }, "geometry": { "type": "Polygon", "coordinates": [ [ [ 77.6422011, 12.9133141 ], [ 77.6430762, 12.9132772 ], [ 77.6430818, 12.9137343 ], [ 77.6422352, 12.9138794 ], [ 77.6422011, 12.9133141 ] ] ] } },
{ "type": "Feature", "properties": { "osm_id": "way/233128987", "leisure": "park", "name": "Independence Park", "access": null, "operator": null }, "geometry": { "type": "Polygon", "coordinates": [ [ [ 77.6470959, 12.9077844 ], [ 77.6470478, 12.9075419 ], [ 77.6470041, 12.907322 ], [ 77.6469526, 12.9070304 ], [ 77.6475099, 12.9069836 ], [ 77.6475509, 12.907212 ], [ 77.6475989, 12.9074797 ], [ 77.6476456, 12.9077401 ], [ 77.6473878, 12.9077608 ], [ 77.6473557, 12.9077634 ], [ 77.6470959, 12.9077844 ] ] ] } },
{ "type": "Feature", "properties": { "osm_id": "way/237089963", "leisure": "park", "name": null, "access": null, "operator": null }, "geometry": { "type": "Polygon", "coordinates": [ [ [ 77.6293547, 12.9125773 ], [ 77.6295671, 12.9121568 ], [ 77.6296524, 12.9119769 ], [ 77.6296989, 12.9118787 ], [ 77.6308743, 12.9122168 ], [ 77.6308496, 12.9125437 ], [ 77.6304002, 12.9125094 ], [ 77.6293547, 12.9125773 ] ] ] } },
{ "type": "Feature", "properties": { "osm_id": "way/237089969", "leisure": "park", "name": null, "access": null, "operator": null }, "geometry": { "type": "Polygon", "coordinates": [ [ [ 77.6310623, 12.9107968 ], [ 77.6311601, 12.9104438 ], [ 77.6318605, 12.9104623 ], [ 77.6318461, 12.9110338 ], [ 77.6310623, 12.9107968 ] ] ] } },
{ "type": "Feature", "properties": { "osm_id": "way/237548188", "leisure": "park", "name": null, "access": null, "operator": null }, "geometry": { "type": "Polygon", "coordinates": [ [ [ 77.6330153, 12.9113634 ], [ 77.6330474, 12.9108113 ], [ 77.633945, 12.9107348 ], [ 77.6339413, 12.9113344 ], [ 77.6330153, 12.9113634 ] ] ] } },
{ "type": "Feature", "properties": { "osm_id": "way/286439576", "leisure": "park", "name": "Hemavati Park", "access": null, "operator": null }, "geometry": { "type": "Polygon", "coordinates": [ [ [ 77.6475837, 12.9167734 ], [ 77.6476198, 12.9158042 ], [ 77.6486256, 12.9158424 ], [ 77.6487439, 12.9167542 ], [ 77.6475837, 12.9167734 ] ] ] } },
{ "type": "Feature", "properties": { "osm_id": "way/313826758", "leisure": "park", "name": null, "access": null, "operator": null }, "geometry": { "type": "Polygon", "coordinates": [ [ [ 77.646613, 12.9148896 ], [ 77.6474147, 12.9149142 ], [ 77.64743, 12.9145805 ], [ 77.6466294, 12.9146328 ], [ 77.646613, 12.9148896 ] ] ] } },
{ "type": "Feature", "properties": { "osm_id": "way/316018421", "leisure": "park", "name": null, "access": null, "operator": null }, "geometry": { "type": "Polygon", "coordinates": [ [ [ 77.6309737, 12.9126536 ], [ 77.6309792, 12.9129527 ], [ 77.6317196, 12.9128592 ], [ 77.6309737, 12.9126536 ] ] ] } },
{ "type": "Feature", "properties": { "osm_id": "way/323094309", "leisure": "park", "name": null, "access": "private", "operator": null }, "geometry": { "type": "Polygon", "coordinates": [ [ [ 77.6519126, 12.9143206 ], [ 77.6522521, 12.9143266 ], [ 77.6522399, 12.9147391 ], [ 77.6519082, 12.9147345 ], [ 77.6519085, 12.9145454 ], [ 77.6519126, 12.9143206 ] ] ] } },
{ "type": "Feature", "properties": { "osm_id": "way/323094310", "leisure": "park", "name": "Sector 2 Park", "access": null, "operator": null }, "geometry": { "type": "Polygon", "coordinates": [ [ [ 77.6467538, 12.9100453 ], [ 77.6467742, 12.9094131 ], [ 77.645935, 12.909477 ], [ 77.6459813, 12.9101231 ], [ 77.6467538, 12.9100453 ] ] ] } },
{ "type": "Feature", "properties": { "osm_id": "way/323642593", "leisure": "park", "name": "Twin park 1", "access": null, "operator": null }, "geometry": { "type": "Polygon", "coordinates": [ [ [ 77.6402368, 12.9079044 ], [ 77.6402548, 12.9082407 ], [ 77.6408492, 12.9082105 ], [ 77.6408312, 12.9078741 ], [ 77.6402368, 12.9079044 ] ] ] } },
{ "type": "Feature", "properties": { "osm_id": "way/323642594", "leisure": "park", "name": "Twin park 2", "access": null, "operator": null }, "geometry": { "type": "Polygon", "coordinates": [ [ [ 77.6402255, 12.907814 ], [ 77.6405463, 12.9077974 ], [ 77.640842, 12.9077826 ], [ 77.6408316, 12.907538 ], [ 77.6408197, 12.9072612 ], [ 77.6402004, 12.9073553 ], [ 77.6402255, 12.907814 ] ] ] } },
{ "type": "Feature", "properties": { "osm_id": "way/335080002", "leisure": "park", "name": null, "access": null, "operator": null }, "geometry": { "type": "Polygon", "coordinates": [ [ [ 77.6497487, 12.9041138 ], [ 77.6497727, 12.9046654 ], [ 77.6504287, 12.9046003 ], [ 77.6502218, 12.9042936 ], [ 77.650043, 12.9041792 ], [ 77.6497487, 12.9041138 ] ] ] } },
{ "type": "Feature", "properties": { "osm_id": "way/343665784", "leisure": "park", "name": null, "access": null, "operator": null }, "geometry": { "type": "Polygon", "coordinates": [ [ [ 77.6366578, 12.9099453 ], [ 77.6371967, 12.9099519 ], [ 77.6371683, 12.9095318 ], [ 77.6365813, 12.9096724 ], [ 77.6366578, 12.9099453 ] ] ] } },
{ "type": "Feature", "properties": { "osm_id": "way/362919672", "leisure": "park", "name": "BBMP Park", "access": null, "operator": "ಬೃಹತ್ ಬೆಂಗಳೂರು ಮಹಾನಗರ ಪಾಲಿಕೆ" }, "geometry": { "type": "Polygon", "coordinates": [ [ [ 77.6366303, 12.9186065 ], [ 77.6362563, 12.9182551 ], [ 77.6368745, 12.9181152 ], [ 77.6368639, 12.9184092 ], [ 77.6367123, 12.9184288 ], [ 77.6367163, 12.9184594 ], [ 77.6366167, 12.9184773 ], [ 77.6366303, 12.9186065 ] ] ] } },
{ "type": "Feature", "properties": { "osm_id": "way/547743214", "leisure": "park", "name": null, "access": null, "operator": null }, "geometry": { "type": "Polygon", "coordinates": [ [ [ 77.650128, 12.9179524 ], [ 77.6501379, 12.9173412 ], [ 77.6511522, 12.9173568 ], [ 77.6511423, 12.917968 ], [ 77.650128, 12.9179524 ] ] ] } },
{ "type": "Feature", "properties": { "osm_id": "way/583395809", "leisure": "park", "name": null, "access": null, "operator": null }, "geometry": { "type": "Polygon", "coordinates": [ [ [ 77.6443827, 12.9102928 ], [ 77.6444808, 12.9102896 ], [ 77.6445295, 12.9116107 ], [ 77.6444141, 12.9116144 ], [ 77.6443827, 12.9102928 ] ] ] } },
{ "type": "Feature", "properties": { "osm_id": "way/610111576", "leisure": "park", "name": "Agara Lake Park", "access": null, "operator": null }, "geometry": { "type": "Polygon", "coordinates": [ [ [ 77.6453476, 12.9226735 ], [ 77.6460292, 12.9233043 ], [ 77.6462964, 12.9235428 ], [ 77.6464204, 12.9236512 ], [ 77.6465519, 12.9237428 ], [ 77.6469294, 12.9239898 ], [ 77.647101, 12.9240904 ], [ 77.6472627, 12.9241897 ], [ 77.6474397, 12.9242858 ], [ 77.647773, 12.9244296 ], [ 77.6478628, 12.9244532 ], [ 77.6479305, 12.9244773 ], [ 77.6479369, 12.9244967 ], [ 77.6479118, 12.9245153 ], [ 77.6475859, 12.9245139 ], [ 77.6474504, 12.9245166 ], [ 77.6471487, 12.9244904 ], [ 77.6467638, 12.9244264 ], [ 77.6462099, 12.9243976 ], [ 77.6455877, 12.924416 ], [ 77.6451692, 12.9243858 ], [ 77.6447762, 12.9242577 ], [ 77.6445436, 12.9241643 ], [ 77.6443236, 12.9240911 ], [ 77.6435753, 12.9238924 ], [ 77.6429678, 12.9237068 ], [ 77.6414402, 12.9233133 ], [ 77.6413853, 12.9233107 ], [ 77.6413276, 12.923299 ], [ 77.6412619, 12.9233094 ], [ 77.6409843, 12.9233604 ], [ 77.6403133, 12.9236239 ], [ 77.6401142, 12.9237021 ], [ 77.6400619, 12.9236864 ], [ 77.6400244, 12.9236668 ], [ 77.6400123, 12.9236524 ], [ 77.6399815, 12.9235923 ], [ 77.6399491, 12.9235152 ], [ 77.6398364, 12.9232784 ], [ 77.6397213, 12.923042 ], [ 77.6395215, 12.9226094 ], [ 77.6393941, 12.9223545 ], [ 77.6392318, 12.9220329 ], [ 77.6391138, 12.9218015 ], [ 77.6389535, 12.9215022 ], [ 77.6389066, 12.9213597 ], [ 77.6388569, 12.9211976 ], [ 77.6387309, 12.920795 ], [ 77.6386518, 12.9205088 ], [ 77.6386155, 12.9203676 ], [ 77.6385592, 12.9201702 ], [ 77.6385069, 12.9198206 ], [ 77.6384761, 12.9193787 ], [ 77.638464, 12.9191356 ], [ 77.6383748, 12.916188 ], [ 77.6384311, 12.9161853 ], [ 77.6385559, 12.9162036 ], [ 77.6385894, 12.9162128 ], [ 77.6387886, 12.9162795 ], [ 77.6388113, 12.916286 ], [ 77.6389407, 12.9163411 ], [ 77.6389882, 12.9163599 ], [ 77.6390863, 12.9163906 ], [ 77.6397008, 12.9166438 ], [ 77.6399432, 12.9167762 ], [ 77.6401162, 12.9169174 ], [ 77.6403326, 12.9171076 ], [ 77.6405283, 12.9172659 ], [ 77.6409623, 12.9176766 ], [ 77.6411543, 12.917835 ], [ 77.6413447, 12.9180481 ], [ 77.6418446, 12.9185906 ], [ 77.6422282, 12.91909 ], [ 77.6426385, 12.9196207 ], [ 77.6428102, 12.9198625 ], [ 77.6429822, 12.9200909 ], [ 77.6430456, 12.9201749 ], [ 77.643356, 12.9205272 ], [ 77.6436779, 12.9209049 ], [ 77.6436161, 12.9209407 ], [ 77.6438511, 12.9212221 ], [ 77.6439217, 12.9211878 ], [ 77.6440516, 12.921336 ], [ 77.6441392, 12.9214369 ], [ 77.6445241, 12.9218853 ], [ 77.644681, 12.9220801 ], [ 77.6446877, 12.9221428 ], [ 77.6447065, 12.9221938 ], [ 77.6447642, 12.9222552 ], [ 77.6448379, 12.9222957 ], [ 77.6449131, 12.9222918 ], [ 77.6453476, 12.9226735 ] ] ] } },
{ "type": "Feature", "properties": { "osm_id": "way/631319094", "leisure": "garden", "name": null, "access": null, "operator": null }, "geometry": { "type": "Polygon", "coordinates": [ [ [ 77.6374987, 12.9137797 ], [ 77.6376207, 12.9137777 ], [ 77.6376214, 12.9138196 ], [ 77.6374994, 12.9138215 ], [ 77.6374987, 12.9137797 ] ] ] } },
{ "type": "Feature", "properties": { "osm_id": "way/631319096", "leisure": "garden", "name": null, "access": null, "operator": null }, "geometry": { "type": "Polygon", "coordinates": [ [ [ 77.6373565, 12.9134694 ], [ 77.6375697, 12.9134645 ], [ 77.6375657, 12.9132965 ], [ 77.6373525, 12.9133014 ], [ 77.6373565, 12.9134694 ] ] ] } },
{ "type": "Feature", "properties": { "osm_id": "way/741212145", "leisure": "park", "name": "HSR Friends Park", "access": null, "operator": null }, "geometry": { "type": "Polygon", "coordinates": [ [ [ 77.6430513, 12.9082749 ], [ 77.6430621, 12.9079116 ], [ 77.6430566, 12.9074253 ], [ 77.6422231, 12.9073974 ], [ 77.642264, 12.908303 ], [ 77.6430513, 12.9082749 ] ] ] } },
{ "type": "Feature", "properties": { "osm_id": "way/741214123", "leisure": "park", "name": "Swabhiman Park", "access": null, "operator": null }, "geometry": { "type": "Polygon", "coordinates": [ [ [ 77.6396101, 12.9116592 ], [ 77.6416335, 12.9116078 ], [ 77.6416102, 12.9114157 ], [ 77.641602, 12.9112757 ], [ 77.6415691, 12.9103429 ], [ 77.6409053, 12.910366 ], [ 77.640115, 12.9103736 ], [ 77.6393209, 12.9103809 ], [ 77.6393237, 12.9108855 ], [ 77.6393239, 12.9109224 ], [ 77.6395877, 12.9113794 ], [ 77.6396101, 12.9116592 ] ] ] } },
{ "type": "Feature", "properties": { "osm_id": "way/781287757", "leisure": "park", "name": null, "access": null, "operator": null }, "geometry": { "type": "Polygon", "coordinates": [ [ [ 77.6418561, 12.9180099 ], [ 77.6411922, 12.9173707 ], [ 77.6416006, 12.9173622 ], [ 77.6417857, 12.9175713 ], [ 77.6419044, 12.9179249 ], [ 77.6418561, 12.9180099 ] ] ] } },
{ "type": "Feature", "properties": { "osm_id": "way/781287761", "leisure": "park", "name": "Swachagraha Kalika Kendra", "access": null, "operator": null }, "geometry": { "type": "Polygon", "coordinates": [ [ [ 77.6396593, 12.9156388 ], [ 77.6386592, 12.9156596 ], [ 77.638655, 12.9154686 ], [ 77.6386493, 12.9152043 ], [ 77.63969, 12.9151827 ], [ 77.6396593, 12.9156388 ] ] ] } },
{ "type": "Feature", "properties": { "osm_id": "way/886187375", "leisure": "park", "name": null, "access": null, "operator": null }, "geometry": { "type": "Polygon", "coordinates": [ [ [ 77.6387514, 12.9138936 ], [ 77.6392818, 12.9138936 ], [ 77.6392818, 12.9134066 ], [ 77.6387514, 12.9134066 ], [ 77.6387514, 12.9138936 ] ] ] } },
{ "type": "Feature", "properties": { "osm_id": "way/886187376", "leisure": "park", "name": null, "access": null, "operator": null }, "geometry": { "type": "Polygon", "coordinates": [ [ [ 77.6402682, 12.9143119 ], [ 77.6406207, 12.9142286 ], [ 77.6406987, 12.9142102 ], [ 77.6407494, 12.9141982 ], [ 77.6407102, 12.9138437 ], [ 77.6406831, 12.9136341 ], [ 77.6402963, 12.9136569 ], [ 77.6402682, 12.9143119 ] ] ] } },
{ "type": "Feature", "properties": { "osm_id": "way/886187377", "leisure": "park", "name": null, "access": null, "operator": null }, "geometry": { "type": "Polygon", "coordinates": [ [ [ 77.6339698, 12.9149441 ], [ 77.6352491, 12.9148803 ], [ 77.6352362, 12.9145319 ], [ 77.6339516, 12.9145957 ], [ 77.6339698, 12.9149441 ] ] ] } },
{ "type": "Feature", "properties": { "osm_id": "way/1050019886", "leisure": "park", "name": null, "access": null, "operator": null }, "geometry": { "type": "Polygon", "coordinates": [ [ [ 77.6466844, 12.9140583 ], [ 77.6462736, 12.9140634 ], [ 77.6462204, 12.9140641 ], [ 77.6462103, 12.9132991 ], [ 77.6466743, 12.9132933 ], [ 77.6466844, 12.9140583 ] ] ] } },
{ "type": "Feature", "properties": { "osm_id": "way/1050019899", "leisure": "park", "name": null, "access": null, "operator": null }, "geometry": { "type": "Polygon", "coordinates": [ [ [ 77.6367974, 12.9083419 ], [ 77.6359552, 12.9083707 ], [ 77.6359472, 12.9079079 ], [ 77.6367599, 12.9078321 ], [ 77.6367974, 12.9083419 ] ] ] } },
{ "type": "Feature", "properties": { "osm_id": "way/1050019900", "leisure": "park", "name": null, "access": null, "operator": null }, "geometry": { "type": "Polygon", "coordinates": [ [ [ 77.6338845, 12.9094531 ], [ 77.6332797, 12.9095184 ], [ 77.6332743, 12.909121 ], [ 77.633851, 12.909074 ], [ 77.6338845, 12.9094531 ] ] ] } },
{ "type": "Feature", "properties": { "osm_id": "way/1050019906", "leisure": "park", "name": null, "access": null, "operator": null }, "geometry": { "type": "Polygon", "coordinates": [ [ [ 77.6513511, 12.9086243 ], [ 77.6510695, 12.9086413 ], [ 77.6510869, 12.9094007 ], [ 77.6513618, 12.9093994 ], [ 77.6513511, 12.9086243 ] ] ] } },
{ "type": "Feature", "properties": { "osm_id": "way/1050019907", "leisure": "park", "name": null, "access": null, "operator": null }, "geometry": { "type": "Polygon", "coordinates": [ [ [ 77.6528411, 12.9113341 ], [ 77.6524588, 12.9113315 ], [ 77.6524481, 12.9097746 ], [ 77.6527056, 12.9097524 ], [ 77.6528411, 12.9113341 ] ] ] } },
{ "type": "Feature", "properties": { "osm_id": "way/1122842100", "leisure": "park", "name": null, "access": null, "operator": null }, "geometry": { "type": "Polygon", "coordinates": [ [ [ 77.6378632, 12.9203089 ], [ 77.6383102, 12.9201474 ], [ 77.638239, 12.9196608 ], [ 77.6382263, 12.9194313 ], [ 77.6377219, 12.9194622 ], [ 77.6376305, 12.9194678 ], [ 77.637468, 12.9195359 ], [ 77.6373008, 12.919606 ], [ 77.6375905, 12.9199184 ], [ 77.6378632, 12.9203089 ] ] ] } },
{ "type": "Feature", "properties": { "osm_id": "way/1125664997", "leisure": "park", "name": null, "access": null, "operator": null }, "geometry": { "type": "Polygon", "coordinates": [ [ [ 77.6303137, 12.9169236 ], [ 77.6316377, 12.9168292 ], [ 77.6316449, 12.9168739 ], [ 77.630395, 12.9172295 ], [ 77.6303137, 12.9169236 ] ] ] } },
{ "type": "Feature", "properties": { "osm_id": "way/1254626826", "leisure": "park", "name": null, "access": null, "operator": null }, "geometry": { "type": "Polygon", "coordinates": [ [ [ 77.6443997, 12.9102043 ], [ 77.6444774, 12.9102011 ], [ 77.6444326, 12.9091508 ], [ 77.6443547, 12.909154 ], [ 77.6443997, 12.9102043 ] ] ] } },
{ "type": "Feature", "properties": { "osm_id": "way/1262069454", "leisure": "park", "name": null, "access": null, "operator": null }, "geometry": { "type": "Polygon", "coordinates": [ [ [ 77.6292738, 12.9159772 ], [ 77.6295635, 12.9159576 ], [ 77.6295521, 12.9157981 ], [ 77.6292625, 12.9158177 ], [ 77.6292738, 12.9159772 ] ] ] } },
{ "type": "Feature", "properties": { "osm_id": "way/1262069462", "leisure": "park", "name": null, "access": null, "operator": null }, "geometry": { "type": "Polygon", "coordinates": [ [ [ 77.6262416, 12.9169994 ], [ 77.6264025, 12.9166034 ], [ 77.6267914, 12.916019 ], [ 77.626998, 12.9161341 ], [ 77.6264428, 12.9169615 ], [ 77.6262416, 12.9169994 ] ] ] } },
{ "type": "Feature", "properties": { "osm_id": "way/1262069463", "leisure": "park", "name": null, "access": null, "operator": null }, "geometry": { "type": "Polygon", "coordinates": [ [ [ 77.6268197, 12.9159637 ], [ 77.6270219, 12.9160933 ], [ 77.6273776, 12.9155658 ], [ 77.6271753, 12.9154363 ], [ 77.6268197, 12.9159637 ] ] ] } },
{ "type": "Feature", "properties": { "osm_id": "way/1262069464", "leisure": "park", "name": null, "access": null, "operator": null }, "geometry": { "type": "Polygon", "coordinates": [ [ [ 77.627977, 12.9142779 ], [ 77.6272152, 12.915372 ], [ 77.6274084, 12.9155053 ], [ 77.6280186, 12.9145838 ], [ 77.627977, 12.9142779 ] ] ] } },
{ "type": "Feature", "properties": { "osm_id": "way/1421713659", "leisure": "park", "name": null, "access": null, "operator": null }, "geometry": { "type": "Polygon", "coordinates": [ [ [ 77.6364474, 12.9113715 ], [ 77.6364233, 12.9110085 ], [ 77.6368322, 12.9110013 ], [ 77.636839, 12.9113646 ], [ 77.6364474, 12.9113715 ] ] ] } },
{ "type": "Feature", "properties": { "osm_id": "way/1486774154", "leisure": "park", "name": null, "access": null, "operator": null }, "geometry": { "type": "Polygon", "coordinates": [ [ [ 77.6513376, 12.9097714 ], [ 77.6513437, 12.9094648 ], [ 77.6511003, 12.9094628 ], [ 77.651101, 12.909589 ], [ 77.6511019, 12.9097577 ], [ 77.6513376, 12.9097714 ] ] ] } },
{ "type": "Feature", "properties": { "osm_id": "way/1486774155", "leisure": "park", "name": null, "access": null, "operator": null }, "geometry": { "type": "Polygon", "coordinates": [ [ [ 77.6511098, 12.9100567 ], [ 77.6511338, 12.9108151 ], [ 77.6513189, 12.9108387 ], [ 77.6513326, 12.9100622 ], [ 77.6511098, 12.9100567 ] ] ] } }
]
}
