{
"type": "FeatureCollection",
"name": "sectors",
"crs": { "type": "name", "properties": { "name": "urn:ogc:def:crs:OGC:1.3:CRS84" } },
"features": [
{ "type": "Feature", "properties": { "osm_id": "relation/17168009", "name": "Sector 1" }, "geometry": { "type": "Polygon", "coordinates": [ [ [ 77.644613, 12.912156 ], [ 77.64541, 12.912066 ], [ 77.646625, 12.911971 ], [ 77.647485, 12.911876 ], [ 77.648368, 12.911863 ], [ 77.649964, 12.911917 ], [ 77.651486, 12.911962 ], [ 77.651857, 12.91198 ], [ 77.651844, 12.912491 ], [ 77.652786, 12.912513 ], [ 77.653728, 12.912535 ], [ 77.653728, 12.912143 ], [ 77.654312, 12.912187 ], [ 77.654335, 12.911244 ], [ 77.654357, 12.910301 ], [ 77.65438, 12.909358 ], [ 77.654402, 12.908415 ], [ 77.654425, 12.907472 ], [ 77.654447, 12.90653 ], [ 77.65447, 12.905587 ], [ 77.654493, 12.904644 ], [ 77.654515, 12.903701 ], [ 77.655198, 12.903526 ], [ 77.655434, 12.904422 ], [ 77.65567, 12.905317 ], [ 77.655906, 12.906212 ], [ 77.656142, 12.907107 ], [ 77.656398, 12.908057 ], [ 77.656653, 12.909006 ], [ 77.657062, 12.909437 ], [ 77.657048, 12.909512 ], [ 77.658331, 12.909779 ], [ 77.659615, 12.910046 ], [ 77.660324, 12.909859 ], [ 77.660288, 12.9107 ], [ 77.660609, 12.912249 ], [ 77.661076, 12.913632 ], [ 77.660464, 12.914918 ], [ 77.659913, 12.91595 ], [ 77.659474, 12.916792 ], [ 77.659035, 12.917633 ], [ 77.65788, 12.918529 ], [ 77.657107, 12.91979 ], [ 77.656414, 12.920485 ], [ 77.655722, 12.92118 ], [ 77.655173, 12.921709 ], [ 77.655081, 12.922101 ], [ 77.655061, 12.922374 ], [ 77.654974, 12.922692 ], [ 77.654988, 12.923115 ], [ 77.655057, 12.923192 ], [ 77.655015, 12.923507 ], [ 77.654986, 12.923561 ], [ 77.654593, 12.923632 ], [ 77.653304, 12.923884 ], [ 77.651714, 12.924182 ], [ 77.651371, 12.924233 ], [ 77.651305, 12.924161 ], [ 77.6511326, 12.924212 ], [ 77.650933, 12.924271 ], [ 77.650355, 12.924359 ], [ 77.6505, 12.924546 ], [ 77.650017, 12.924738 ], [ 77.649748, 12.924838 ], [ 77.64974, 12.924949 ], [ 77.64948, 12.924847 ], [ 77.648882, 12.924765 ], [ 77.6488219, 12.9247829 ], [ 77.648521, 12.924752 ], [ 77.647553, 12.924786 ], [ 77.646905, 12.924589 ], [ 77.646429, 12.924654 ], [ 77.645904, 12.924771 ], [ 77.645529, 12.924778 ], [ 77.645083, 12.92472 ], [ 77.64507, 12.923556 ], [ 77.645058, 12.922393 ], [ 77.645014, 12.921363 ], [ 77.64497, 12.920334 ], [ 77.644927, 12.919304 ], [ 77.644883, 12.918275 ], [ 77.644839, 12.917245 ], [ 77.644794, 12.916227 ], [ 77.644749, 12.91521 ], [ 77.644704, 12.914192 ], [ 77.644658, 12.913174 ], [ 77.644613, 12.912156 ] ] ] } },
{ "type": "Feature", "properties": { "osm_id": "relation/17168008", "name": "Sector 2" }, "geometry": { "type": "Polygon", "coordinates": [ [ [ 77.64425, 12.904643 ], [ 77.645825, 12.904276 ], [ 77.645798, 12.904335 ], [ 77.645608, 12.904599 ], [ 77.645273, 12.905449 ], [ 77.644938, 12.9063 ], [ 77.64446, 12.907142 ], [ 77.645538, 12.906851 ], [ 77.646628, 12.906566 ], [ 77.647719, 12.906281 ], [ 77.649072, 12.906033 ], [ 77.649073, 12.905979 ], [ 77.649066, 12.905724 ], [ 77.64906, 12.905354 ], [ 77.649051, 12.905221 ], [ 77.649023, 12.904862 ], [ 77.649014, 12.904742 ], [ 77.648976, 12.904241 ], [ 77.648959, 12.904008 ], [ 77.648937, 12.903765 ], [ 77.648902, 12.903288 ], [ 77.648741, 12.903273 ], [ 77.648346, 12.903245 ], [ 77.648372, 12.902893 ], [ 77.648279, 12.90234 ], [ 77.648286, 12.902092 ], [ 77.648312, 12.901806 ], [ 77.648623, 12.901201 ], [ 77.648677, 12.901204 ], [ 77.648988, 12.901304 ], [ 77.649434, 12.90146 ], [ 77.650784, 12.90197 ], [ 77.65099, 12.902033 ], [ 77.65106, 12.902061 ], [ 77.651966, 12.901132 ], [ 77.652345, 12.901521 ], [ 77.652268, 12.902561 ], [ 77.65228, 12.902747 ], [ 77.653871, 12.902532 ], [ 77.654032, 12.903332 ], [ 77.654121, 12.903802 ], [ 77.654515, 12.903701 ], [ 77.654493, 12.904644 ], [ 77.65447, 12.905587 ], [ 77.654447, 12.90653 ], [ 77.654425, 12.907472 ], [ 77.654402, 12.908415 ], [ 77.65438, 12.909358 ], [ 77.654357, 12.910301 ], [ 77.654335, 12.911244 ], [ 77.654312, 12.912187 ], [ 77.653728, 12.912143 ], [ 77.653728, 12.912535 ], [ 77.652786, 12.912513 ], [ 77.651844, 12.912491 ], [ 77.651857, 12.91198 ], [ 77.651486, 12.911962 ], [ 77.649964, 12.911917 ], [ 77.648368, 12.911863 ], [ 77.647485, 12.911876 ], [ 77.646625, 12.911971 ], [ 77.64541, 12.912066 ], [ 77.644613, 12.912156 ], [ 77.644568, 12.911217 ], [ 77.644523, 12.910278 ], [ 77.644477, 12.909339 ], [ 77.644432, 12.908399 ], [ 77.644386, 12.90746 ], [ 77.644341, 12.906521 ], [ 77.644295, 12.905582 ], [ 77.64425, 12.904643 ] ] ] } },
{ "type": "Feature", "properties": { "osm_id": "relation/17168007", "name": "Sector 3" }, "geometry": { "type": "Polygon", "coordinates": [ [ [ 77.638043, 12.906037 ], [ 77.638573, 12.905859 ], [ 77.639003, 12.905775 ], [ 77.639233, 12.905716 ], [ 77.6406, 12.905512 ], [ 77.641481, 12.905333 ], [ 77.642651, 12.905009 ], [ 77.643543, 12.904808 ], [ 77.64425, 12.904643 ], [ 77.644295, 12.905582 ], [ 77.644341, 12.906521 ], [ 77.644386, 12.90746 ], [ 77.644432, 12.908399 ], [ 77.644477, 12.909339 ], [ 77.644523, 12.910278 ], [ 77.644568, 12.911217 ], [ 77.644613, 12.912156 ], [ 77.643679, 12.912181 ], [ 77.642744, 12.912206 ], [ 77.641809, 12.912231 ], [ 77.640875, 12.912256 ], [ 77.63994, 12.912281 ], [ 77.639005, 12.912306 ], [ 77.63807, 12.912331 ], [ 77.638066, 12.911282 ], [ 77.638061, 12.910233 ], [ 77.638057, 12.909184 ], [ 77.638052, 12.908135 ], [ 77.638048, 12.907086 ], [ 77.638043, 12.906037 ] ] ] } },
{ "type": "Feature", "properties": { "osm_id": "relation/17168006", "name": "Sector 4" }, "geometry": { "type": "Polygon", "coordinates": [ [ [ 77.63807, 12.912331 ], [ 77.639005, 12.912306 ], [ 77.63994, 12.912281 ], [ 77.640875, 12.912256 ], [ 77.641809, 12.912231 ], [ 77.642744, 12.912206 ], [ 77.643679, 12.912181 ], [ 77.644613, 12.912156 ], [ 77.644658, 12.913174 ], [ 77.644704, 12.914192 ], [ 77.644749, 12.91521 ], [ 77.644794, 12.916227 ], [ 77.644839, 12.917245 ], [ 77.644883, 12.918275 ], [ 77.644927, 12.919304 ], [ 77.64497, 12.920334 ], [ 77.645014, 12.921363 ], [ 77.645058, 12.922393 ], [ 77.644391, 12.921641 ], [ 77.643724, 12.920889 ], [ 77.643057, 12.920137 ], [ 77.642389, 12.919386 ], [ 77.641722, 12.918634 ], [ 77.641055, 12.917882 ], [ 77.640388, 12.917131 ], [ 77.639721, 12.916379 ], [ 77.638202, 12.915888 ], [ 77.638154, 12.91491 ], [ 77.638112, 12.913621 ], [ 77.63807, 12.912331 ] ] ] } },
{ "type": "Feature", "properties": { "osm_id": "relation/17168005", "name": "Sector 5" }, "geometry": { "type": "Polygon", "coordinates": [ [ [ 77.631727, 12.916578 ], [ 77.632695, 12.916496 ], [ 77.633663, 12.916414 ], [ 77.634943, 12.916267 ], [ 77.636223, 12.91612 ], [ 77.637213, 12.916004 ], [ 77.638202, 12.915888 ], [ 77.639721, 12.916379 ], [ 77.640388, 12.917131 ], [ 77.641055, 12.917882 ], [ 77.641722, 12.918634 ], [ 77.642389, 12.919386 ], [ 77.643057, 12.920137 ], [ 77.643724, 12.920889 ], [ 77.644391, 12.921641 ], [ 77.645058, 12.922393 ], [ 77.64507, 12.923556 ], [ 77.645083, 12.92472 ], [ 77.644898, 12.924697 ], [ 77.644116, 12.924447 ], [ 77.643719, 12.924325 ], [ 77.643197, 12.924129 ], [ 77.642215, 12.924 ], [ 77.641341, 12.92364 ], [ 77.641155, 12.923797 ], [ 77.640771, 12.924037 ], [ 77.639936, 12.924304 ], [ 77.639911, 12.924932 ], [ 77.63996, 12.926119 ], [ 77.639465, 12.926266 ], [ 77.639334, 12.925297 ], [ 77.639414, 12.925237 ], [ 77.639304, 12.924434 ], [ 77.6391984, 12.9240468 ], [ 77.639154, 12.923884 ], [ 77.638593, 12.923944 ], [ 77.637996, 12.924007 ], [ 77.637407, 12.923696 ], [ 77.637269, 12.923583 ], [ 77.63716, 12.923488 ], [ 77.636864, 12.923504 ], [ 77.636653, 12.923517 ], [ 77.636424, 12.923602 ], [ 77.636385, 12.923822 ], [ 77.63608, 12.923802 ], [ 77.635738, 12.923784 ], [ 77.635694, 12.923348 ], [ 77.634856, 12.92349 ], [ 77.634734, 12.923513 ], [ 77.634774, 12.923859 ], [ 77.634023, 12.923916 ], [ 77.633962, 12.923309 ], [ 77.6339, 12.922785 ], [ 77.633855, 12.922425 ], [ 77.633843, 12.922181 ], [ 77.633723, 12.921719 ], [ 77.633514, 12.921768 ], [ 77.633248, 12.920928 ], [ 77.633739, 12.920969 ], [ 77.634465, 12.920775 ], [ 77.634735, 12.920537 ], [ 77.634782, 12.920315 ], [ 77.634702, 12.920132 ], [ 77.634157, 12.919249 ], [ 77.634021, 12.919125 ], [ 77.633829, 12.919173 ], [ 77.633571, 12.91896 ], [ 77.633258, 12.918868 ], [ 77.632939, 12.919219 ], [ 77.632735, 12.919174 ], [ 77.632746, 12.919336 ], [ 77.632425, 12.919742 ], [ 77.632093, 12.91862 ], [ 77.631797, 12.916869 ], [ 77.631727, 12.916578 ] ] ] } },
{ "type": "Feature", "properties": { "osm_id": "relation/17168004", "name": "Sector 6" }, "geometry": { "type": "Polygon", "coordinates": [ [ [ 77.6236224, 12.9169694 ], [ 77.6236439, 12.9164386 ], [ 77.6237221, 12.9162488 ], [ 77.6238199, 12.916072 ], [ 77.6240343, 12.9156843 ], [ 77.6242243, 12.9153405 ], [ 77.624267, 12.9152634 ], [ 77.6244128, 12.9149242 ], [ 77.6253739, 12.9132465 ], [ 77.6261075, 12.912121 ], [ 77.6268625, 12.9108334 ], [ 77.626833, 12.910815 ], [ 77.626477, 12.910795 ], [ 77.626038, 12.910849 ], [ 77.625761, 12.910641 ], [ 77.625832, 12.910509 ], [ 77.626018, 12.910176 ], [ 77.62695, 12.910534 ], [ 77.627882, 12.910891 ], [ 77.628814, 12.911249 ], [ 77.629746, 12.911607 ], [ 77.630625, 12.911883 ], [ 77.631503, 12.91216 ], [ 77.632382, 12.912437 ], [ 77.633505, 12.912424 ], [ 77.634629, 12.912411 ], [ 77.635753, 12.912397 ], [ 77.636912, 12.912364 ], [ 77.63807, 12.912331 ], [ 77.638112, 12.913621 ], [ 77.638154, 12.91491 ], [ 77.638202, 12.915888 ], [ 77.637213, 12.916004 ], [ 77.636223, 12.91612 ], [ 77.634943, 12.916267 ], [ 77.633663, 12.916414 ], [ 77.632695, 12.916496 ], [ 77.631727, 12.916578 ], [ 77.631797, 12.916869 ], [ 77.631574, 12.91685 ], [ 77.630961, 12.916537 ], [ 77.630199, 12.916528 ], [ 77.630016, 12.916768 ], [ 77.629794, 12.916964 ], [ 77.629333, 12.917014 ], [ 77.628703, 12.916875 ], [ 77.628307, 12.9169 ], [ 77.6285543, 12.918014 ], [ 77.6271536, 12.9184 ], [ 77.6260606, 12.9187132 ], [ 77.6253494, 12.9188839 ], [ 77.6251312, 12.9189732 ], [ 77.624031, 12.919115 ], [ 77.6239752, 12.9189039 ], [ 77.624014, 12.9188778 ], [ 77.6238111, 12.9183247 ], [ 77.623841, 12.9180242 ], [ 77.623727, 12.9180216 ], [ 77.6237351, 12.9177563 ], [ 77.6237632, 12.9170086 ], [ 77.6236224, 12.9169694 ] ] ] } },
{ "type": "Feature", "properties": { "osm_id": "relation/17168003", "name": "Sector 7" }, "geometry": { "type": "Polygon", "coordinates": [ [ [ 77.625508, 12.908478 ], [ 77.625853, 12.908433 ], [ 77.626133, 12.908417 ], [ 77.627225, 12.908185 ], [ 77.627996, 12.908135 ], [ 77.62847, 12.908106 ], [ 77.628664, 12.907782 ], [ 77.629001, 12.907201 ], [ 77.629088, 12.907073 ], [ 77.629175, 12.906941 ], [ 77.629262, 12.906816 ], [ 77.62986, 12.906743 ], [ 77.63035, 12.906918 ], [ 77.63057, 12.906885 ], [ 77.630878, 12.907025 ], [ 77.63099, 12.906737 ], [ 77.631429, 12.906838 ], [ 77.631802, 12.906685 ], [ 77.632403, 12.906665 ], [ 77.632833, 12.906656 ], [ 77.634067, 12.907032 ], [ 77.634518, 12.907259 ], [ 77.635416, 12.907387 ], [ 77.635341, 12.906992 ], [ 77.634885, 12.906163 ], [ 77.635069, 12.906141 ], [ 77.635298, 12.906662 ], [ 77.635469, 12.906925 ], [ 77.635672, 12.90711 ], [ 77.635993, 12.906905 ], [ 77.63706, 12.906396 ], [ 77.63801, 12.906048 ], [ 77.638043, 12.906037 ], [ 77.638048, 12.907086 ], [ 77.638052, 12.908135 ], [ 77.638057, 12.909184 ], [ 77.638061, 12.910233 ], [ 77.638066, 12.911282 ], [ 77.63807, 12.912331 ], [ 77.636912, 12.912364 ], [ 77.635753, 12.912397 ], [ 77.634629, 12.912411 ], [ 77.633505, 12.912424 ], [ 77.632382, 12.912437 ], [ 77.631503, 12.91216 ], [ 77.630625, 12.911883 ], [ 77.629746, 12.911607 ], [ 77.628814, 12.911249 ], [ 77.627882, 12.910891 ], [ 77.62695, 12.910534 ], [ 77.626018, 12.910176 ], [ 77.626252, 12.909758 ], [ 77.625799, 12.909374 ], [ 77.625661, 12.909156 ], [ 77.625508, 12.908478 ] ] ] } }
]
}
